MALLIGYONG-1            
1 58400U 23179A   24120.93082190  .00005941  00000+0  26115-3 0  9996
2 58400  97.4093   8.5070 0011142  76.4852 283.7625 15.22219807 24389
